OBJECT_NAME,OBJECT_ID,EPOCH,MEAN_MOTION,ECCENTRICITY,INCLINATION,RA_OF_ASC_NODE,ARG_OF_PERICENTER,MEAN_ANOMALY,EPHEMERIS_TYPE,CLASSIFICATION_TYPE,NORAD_CAT_ID,ELEMENT_SET_NO,REV_AT_EPOCH,BSTAR,MEAN_MOTION_DOT,MEAN_MOTION_DDOT
GPS BIIF-9,2015-013A,2024-07-07T01:56:55.378464,2.00564362,.0088093,53.3373,233.5729,29.7608,330.8203,0,U,40534,999,6758,0,.31E-6,0
GSAT0203 (GALILEO 7),2015-017A,2024-07-06T20:38:03.724512,1.70476147,.000163,56.9252,0.9325,246.0658,113.9215,0,U,40544,999,5775,0,-.101E-5,0
GSAT0204 (GALILEO 8),2015-017B,2024-07-05T22:34:48.557856,1.70475764,.0001971,56.9310,0.9730,210.0903,149.9044,0,U,40545,999,5774,0,-.101E-5,0
GPS BIIF-10,2015-033A,2024-07-07T05:49:57.432576,2.00566035,.0094078,54.5780,296.2377,19.7804,340.6086,0,U,40730,999,6575,0,-.62E-6,0
METEOSAT-11 (MSG-4),2015-034A,2024-07-07T06:22:20.269632,1.00269052,.0001054,1.4327,69.5522,162.8193,158.1622,0,U,40732,999,10,0,.57E-6,0
GSAT0205 (GALILEO 9),2015-045A,2024-07-03T22:47:00.682080,1.70473894,.0002869,55.2098,241.3070,18.6742,341.4317,0,U,40889,999,5485,0,.4E-6,0
GSAT0206 (GALILEO 10),2015-045B,2024-07-07T02:28:09.454080,1.70473934,.0001167,55.2073,241.2153,354.8047,5.2893,0,U,40890,999,5493,0,.3E-6,0
GPS BIIF-11,2015-062A,2024-07-06T19:17:31.746624,2.00562548,.0095543,56.4175,58.3279,224.8035,134.4851,0,U,41019,999,6358,0,-.65E-6,0
ELEKTRO-L 2,2015-074A,2024-07-07T09:41:40.911072,1.00270815,.0001217,4.8927,79.2343,149.4550,188.0665,0,U,41105,999,3138,0,-.123E-5,0
GSAT0209 (GALILEO 12),2015-079A,2024-07-06T16:27:46.783296,1.70473923,.0004681,55.4334,120.7795,322.8191,37.1117,0,U,41174,999,5266,0,-.23E-6,0
GSAT0208 (GALILEO 11),2015-079B,2024-07-07T11:48:55.914912,1.70473961,.0004193,55.4321,120.7551,321.4885,38.4505,0,U,41175,999,5325,0,-.18E-6,0
GPS BIIF-12,2016-007A,2024-07-06T09:15:18.863136,2.00561008,.0079879,55.1332,117.6882,238.9231,120.2702,0,U,41328,999,6158,0,-.33E-6,0
GSAT0211 (GALILEO 14),2016-030A,2024-07-05T20:31:48.395136,1.70473792,.0003115,55.3561,241.2631,303.3769,56.6911,0,U,41549,999,5052,0,.35E-6,0
GSAT0210 (GALILEO 13),2016-030B,2024-07-02T00:58:27.796800,1.70473957,.000309,55.3575,241.3690,263.9154,96.1363,0,U,41550,999,5045,0,.38E-6,0
INSAT-3DR,2016-054A,2024-07-07T08:23:45.012192,1.00271542,.001055,0.0599,91.0972,175.2963,219.3266,0,U,41752,999,2870,0,-.81E-6,0
GSAT0207 (GALILEO 15),2016-069A,2024-07-03T11:02:28.057344,1.70473881,.0004999,55.0968,120.8655,306.8358,53.0708,0,U,41859,999,4723,0,-.27E-6,0
GSAT0212 (GALILEO 16),2016-069B,2024-07-07T10:05:25.420704,1.70474109,.0003837,55.0956,120.7521,335.1806,24.7690,0,U,41860,999,4755,0,-.19E-6,0
GSAT0213 (GALILEO 17),2016-069C,2024-07-05T10:37:23.101536,1.70472777,.0004804,55.0974,120.8136,289.8858,70.0186,0,U,41861,999,4738,0,-.28E-6,0
GSAT0214 (GALILEO 18),2016-069D,2024-07-06T18:15:50.736960,1.70474113,.0003918,55.0967,120.7707,294.7420,65.1808,0,U,41862,999,4753,0,-.23E-6,0
GOES 16,2016-071A,2024-07-07T12:50:21.228288,1.00270536,.0000051,0.0790,250.0285,265.1795,248.1401,0,U,41866,999,2798,0,-.251E-5,0
GSAT-17,2017-040B,2024-07-07T10:12:30.525120,1.00272124,.0001613,0.0658,99.9460,157.0118,275.5068,0,U,42815,999,2567,0,-.262E-5,0
GSAT0215 (GALILEO 19),2017-079A,2024-07-07T20:05:41.194176,1.70474683,.0003071,55.3325,241.0299,254.6358,105.4229,0,U,43055,999,4089,0,.28E-6,0
GSAT0216 (GALILEO 20),2017-079B,2024-07-06T08:51:41.854752,1.70474438,.0004728,55.3327,241.0700,266.8574,93.1855,0,U,43056,999,4088,0,.33E-6,0
GSAT0217 (GALILEO 21),2017-079C,2024-07-06T14:09:10.520640,1.70474365,.0001619,55.3360,241.0626,286.8895,73.1893,0,U,43057,999,4087,0,.32E-6,0
GSAT0218 (GALILEO 22),2017-079D,2024-07-05T01:12:01.133568,1.70474387,.0006126,55.3319,241.1029,265.0652,94.9626,0,U,43058,999,4087,0,.38E-6,0
GOES 17,2018-022A,2024-07-07T16:08:01.472928,1.00270723,.0000858,0.0077,151.1919,7.2601,264.9484,0,U,43226,999,2332,0,-.94E-6,0
GSAT0221 (GALILEO 25),2018-060A,2024-07-06T02:58:32.893248,1.70475975,.0001949,57.3049,0.9576,292.8322,67.1527,0,U,43564,999,3704,0,-.1E-5,0
GSAT0222 (GALILEO 26),2018-060B,2024-07-06T22:17:56.569344,1.70475744,.0001838,57.3085,0.9379,215.6186,144.3733,0,U,43565,999,3710,0,-.1E-5,0
GSAT0219 (GALILEO 23),2018-060C,2024-07-02T10:59:58.403904,1.70475824,.0001342,57.3081,1.0599,320.5311,39.4744,0,U,43566,999,3700,0,-.92E-6,0
GSAT0220 (GALILEO 24),2018-060D,2024-07-06T04:45:44.888544,1.70475891,.0001474,57.3075,0.9593,300.0345,59.9562,0,U,43567,999,3705,0,-.1E-5,0
BEIDOU-3 M13,2018-072A,2024-07-07T03:29:33.976032,1.86231638,.0006536,56.0077,86.2138,312.2258,47.7582,0,U,43622,999,3943,0,-.49E-6,0
